[{"CCSDS_OMM_VERS":"3.0","COMMENT":"GENERATED VIA SPACE-TRACK.ORG API","CREATION_DATE":"2026-05-15T02:34:27","ORIGINATOR":"18 SPCS","OBJECT_NAME":"GALILEO 16 (26C)","OBJECT_ID":"2016-069B","CENTER_NAME":"EARTH","REF_FRAME":"TEME","TIME_SYSTEM":"UTC","MEAN_ELEMENT_THEORY":"SGP4","EPOCH":"2026-05-14T03:55:25.612032","MEAN_MOTION":"1.70473991","ECCENTRICITY":"0.00047534","INCLINATION":"55.4761","RA_OF_ASC_NODE":"102.0219","ARG_OF_PERICENTER":"345.7526","MEAN_ANOMALY":"14.2010","EPHEMERIS_TYPE":"0","CLASSIFICATION_TYPE":"U","NORAD_CAT_ID":"41860","ELEMENT_SET_NO":"999","REV_AT_EPOCH":"5907","BSTAR":"0.00000000000000","MEAN_MOTION_DOT":"0.00000049","MEAN_MOTION_DDOT":"0.0000000000000","SEMIMAJOR_AXIS":"29600.321","PERIOD":"844.704","APOAPSIS":"23236.256","PERIAPSIS":"23208.116","OBJECT_TYPE":"PAYLOAD","RCS_SIZE":"LARGE","COUNTRY_CODE":"ESA","LAUNCH_DATE":"2016-11-17","SITE":"FRGUI","DECAY_DATE":null,"FILE":"5196476","GP_ID":"323371080","TLE_LINE0":"0 GALILEO 16 (26C)","TLE_LINE1":"1 41860U 16069B   26134.16349088  .00000049  00000-0  00000-0 0  9999","TLE_LINE2":"2 41860  55.4761 102.0219 0004753 345.7526  14.2010  1.70473991 59075"},{"CCSDS_OMM_VERS":"3.0","COMMENT":"GENERATED VIA SPACE-TRACK.ORG API","CREATION_DATE":"2026-05-20T17:35:22","ORIGINATOR":"18 SPCS","OBJECT_NAME":"GALILEO 16 (26C)","OBJECT_ID":"2016-069B","CENTER_NAME":"EARTH","REF_FRAME":"TEME","TIME_SYSTEM":"UTC","MEAN_ELEMENT_THEORY":"SGP4","EPOCH":"2026-05-20T00:42:12.484224","MEAN_MOTION":"1.70473924","ECCENTRICITY":"0.00047579","INCLINATION":"55.4799","RA_OF_ASC_NODE":"101.8598","ARG_OF_PERICENTER":"347.8096","MEAN_ANOMALY":"12.1297","EPHEMERIS_TYPE":"0","CLASSIFICATION_TYPE":"U","NORAD_CAT_ID":"41860","ELEMENT_SET_NO":"999","REV_AT_EPOCH":"5917","BSTAR":"0.00000000000000","MEAN_MOTION_DOT":"0.00000019","MEAN_MOTION_DDOT":"0.0000000000000","SEMIMAJOR_AXIS":"29600.329","PERIOD":"844.704","APOAPSIS":"23236.278","PERIAPSIS":"23208.110","OBJECT_TYPE":"PAYLOAD","RCS_SIZE":"LARGE","COUNTRY_CODE":"ESA","LAUNCH_DATE":"2016-11-17","SITE":"FRGUI","DECAY_DATE":null,"FILE":"5207233","GP_ID":"323993955","TLE_LINE0":"0 GALILEO 16 (26C)","TLE_LINE1":"1 41860U 16069B   26140.02931116  .00000019  00000-0  00000-0 0  9997","TLE_LINE2":"2 41860  55.4799 101.8598 0004758 347.8096  12.1297  1.70473924 59174"},{"CCSDS_OMM_VERS":"3.0","COMMENT":"GENERATED VIA SPACE-TRACK.ORG API","CREATION_DATE":"2026-05-20T14:36:24","ORIGINATOR":"18 SPCS","OBJECT_NAME":"GALILEO 16 (26C)","OBJECT_ID":"2016-069B","CENTER_NAME":"EARTH","REF_FRAME":"TEME","TIME_SYSTEM":"UTC","MEAN_ELEMENT_THEORY":"SGP4","EPOCH":"2026-05-20T00:42:12.484224","MEAN_MOTION":"1.70473924","ECCENTRICITY":"0.00047580","INCLINATION":"55.4799","RA_OF_ASC_NODE":"101.8598","ARG_OF_PERICENTER":"347.8096","MEAN_ANOMALY":"12.1297","EPHEMERIS_TYPE":"0","CLASSIFICATION_TYPE":"U","NORAD_CAT_ID":"41860","ELEMENT_SET_NO":"999","REV_AT_EPOCH":"5917","BSTAR":"0.00000000000000","MEAN_MOTION_DOT":"0.00000019","MEAN_MOTION_DDOT":"0.0000000000000","SEMIMAJOR_AXIS":"29600.329","PERIOD":"844.704","APOAPSIS":"23236.278","PERIAPSIS":"23208.110","OBJECT_TYPE":"PAYLOAD","RCS_SIZE":"LARGE","COUNTRY_CODE":"ESA","LAUNCH_DATE":"2016-11-17","SITE":"FRGUI","DECAY_DATE":null,"FILE":"5206840","GP_ID":"323963718","TLE_LINE0":"0 GALILEO 16 (26C)","TLE_LINE1":"1 41860U 16069B   26140.02931116  .00000019  00000-0  00000+0 0  9996","TLE_LINE2":"2 41860  55.4799 101.8598 0004758 347.8096  12.1297  1.70473924 59174"},{"CCSDS_OMM_VERS":"3.0","COMMENT":"GENERATED VIA SPACE-TRACK.ORG API","CREATION_DATE":"2026-05-21T20:56:34","ORIGINATOR":"18 SPCS","OBJECT_NAME":"GALILEO 16 (26C)","OBJECT_ID":"2016-069B","CENTER_NAME":"EARTH","REF_FRAME":"TEME","TIME_SYSTEM":"UTC","MEAN_ELEMENT_THEORY":"SGP4","EPOCH":"2026-05-21T04:51:35.161920","MEAN_MOTION":"1.70473876","ECCENTRICITY":"0.00047440","INCLINATION":"55.4806","RA_OF_ASC_NODE":"101.8273","ARG_OF_PERICENTER":"348.3152","MEAN_ANOMALY":"11.6290","EPHEMERIS_TYPE":"0","CLASSIFICATION_TYPE":"U","NORAD_CAT_ID":"41860","ELEMENT_SET_NO":"999","REV_AT_EPOCH":"5919","BSTAR":"0.00000000000000","MEAN_MOTION_DOT":"0.00000020","MEAN_MOTION_DDOT":"0.0000000000000","SEMIMAJOR_AXIS":"29600.334","PERIOD":"844.704","APOAPSIS":"23236.242","PERIAPSIS":"23208.157","OBJECT_TYPE":"PAYLOAD","RCS_SIZE":"LARGE","COUNTRY_CODE":"ESA","LAUNCH_DATE":"2016-11-17","SITE":"FRGUI","DECAY_DATE":null,"FILE":"5207638","GP_ID":"324134545","TLE_LINE0":"0 GALILEO 16 (26C)","TLE_LINE1":"1 41860U 16069B   26141.20249030  .00000020  00000-0  00000+0 0  9996","TLE_LINE2":"2 41860  55.4806 101.8273 0004744 348.3152  11.6290  1.70473876 59192"},{"CCSDS_OMM_VERS":"3.0","COMMENT":"GENERATED VIA SPACE-TRACK.ORG API","CREATION_DATE":"2026-05-21T17:37:02","ORIGINATOR":"18 SPCS","OBJECT_NAME":"GALILEO 16 (26C)","OBJECT_ID":"2016-069B","CENTER_NAME":"EARTH","REF_FRAME":"TEME","TIME_SYSTEM":"UTC","MEAN_ELEMENT_THEORY":"SGP4","EPOCH":"2026-05-21T04:51:35.162784","MEAN_MOTION":"1.70473876","ECCENTRICITY":"0.00047435","INCLINATION":"55.4806","RA_OF_ASC_NODE":"101.8273","ARG_OF_PERICENTER":"348.3152","MEAN_ANOMALY":"11.6290","EPHEMERIS_TYPE":"0","CLASSIFICATION_TYPE":"U","NORAD_CAT_ID":"41860","ELEMENT_SET_NO":"999","REV_AT_EPOCH":"5919","BSTAR":"0.00000000000000","MEAN_MOTION_DOT":"0.00000020","MEAN_MOTION_DDOT":"0.0000000000000","SEMIMAJOR_AXIS":"29600.334","PERIOD":"844.704","APOAPSIS":"23236.240","PERIAPSIS":"23208.158","OBJECT_TYPE":"PAYLOAD","RCS_SIZE":"LARGE","COUNTRY_CODE":"ESA","LAUNCH_DATE":"2016-11-17","SITE":"FRGUI","DECAY_DATE":null,"FILE":"5207371","GP_ID":"324094480","TLE_LINE0":"0 GALILEO 16 (26C)","TLE_LINE1":"1 41860U 16069B   26141.20249031  .00000020  00000-0  00000-0 0  9998","TLE_LINE2":"2 41860  55.4806 101.8273 0004744 348.3152  11.6290  1.70473876 59192"},{"CCSDS_OMM_VERS":"3.0","COMMENT":"GENERATED VIA SPACE-TRACK.ORG API","CREATION_DATE":"2026-05-25T04:06:45","ORIGINATOR":"18 SPCS","OBJECT_NAME":"GALILEO 16 (26C)","OBJECT_ID":"2016-069B","CENTER_NAME":"EARTH","REF_FRAME":"TEME","TIME_SYSTEM":"UTC","MEAN_ELEMENT_THEORY":"SGP4","EPOCH":"2026-05-24T03:15:00.486720","MEAN_MOTION":"1.70473965","ECCENTRICITY":"0.00047432","INCLINATION":"55.4824","RA_OF_ASC_NODE":"101.7462","ARG_OF_PERICENTER":"349.5269","MEAN_ANOMALY":"10.4238","EPHEMERIS_TYPE":"0","CLASSIFICATION_TYPE":"U","NORAD_CAT_ID":"41860","ELEMENT_SET_NO":"999","REV_AT_EPOCH":"5924","BSTAR":"0.00000000000000","MEAN_MOTION_DOT":"0.00000016","MEAN_MOTION_DDOT":"0.0000000000000","SEMIMAJOR_AXIS":"29600.324","PERIOD":"844.704","APOAPSIS":"23236.229","PERIAPSIS":"23208.149","OBJECT_TYPE":"PAYLOAD","RCS_SIZE":"LARGE","COUNTRY_CODE":"ESA","LAUNCH_DATE":"2016-11-17","SITE":"FRGUI","DECAY_DATE":null,"FILE":"5212715","GP_ID":"324760167","TLE_LINE0":"0 GALILEO 16 (26C)","TLE_LINE1":"1 41860U 16069B   26144.13542230  .00000016  00000-0  00000-0 0  9995","TLE_LINE2":"2 41860  55.4824 101.7462 0004743 349.5269  10.4238  1.70473965 59246"},{"CCSDS_OMM_VERS":"3.0","COMMENT":"GENERATED VIA SPACE-TRACK.ORG API","CREATION_DATE":"2026-05-25T17:37:17","ORIGINATOR":"18 SPCS","OBJECT_NAME":"GALILEO 16 (26C)","OBJECT_ID":"2016-069B","CENTER_NAME":"EARTH","REF_FRAME":"TEME","TIME_SYSTEM":"UTC","MEAN_ELEMENT_THEORY":"SGP4","EPOCH":"2026-05-24T17:19:41.416032","MEAN_MOTION":"1.70473926","ECCENTRICITY":"0.00047376","INCLINATION":"55.4828","RA_OF_ASC_NODE":"101.7300","ARG_OF_PERICENTER":"349.6187","MEAN_ANOMALY":"10.3311","EPHEMERIS_TYPE":"0","CLASSIFICATION_TYPE":"U","NORAD_CAT_ID":"41860","ELEMENT_SET_NO":"999","REV_AT_EPOCH":"5925","BSTAR":"0.00000000000000","MEAN_MOTION_DOT":"0.00000014","MEAN_MOTION_DDOT":"0.0000000000000","SEMIMAJOR_AXIS":"29600.329","PERIOD":"844.704","APOAPSIS":"23236.217","PERIAPSIS":"23208.170","OBJECT_TYPE":"PAYLOAD","RCS_SIZE":"LARGE","COUNTRY_CODE":"ESA","LAUNCH_DATE":"2016-11-17","SITE":"FRGUI","DECAY_DATE":null,"FILE":"5214505","GP_ID":"324966358","TLE_LINE0":"0 GALILEO 16 (26C)","TLE_LINE1":"1 41860U 16069B   26144.72200713  .00000014  00000-0  00000-0 0  9995","TLE_LINE2":"2 41860  55.4828 101.7300 0004738 349.6187  10.3311  1.70473926 59254"},{"CCSDS_OMM_VERS":"3.0","COMMENT":"GENERATED VIA SPACE-TRACK.ORG API","CREATION_DATE":"2026-05-25T06:46:58","ORIGINATOR":"18 SPCS","OBJECT_NAME":"GALILEO 16 (26C)","OBJECT_ID":"2016-069B","CENTER_NAME":"EARTH","REF_FRAME":"TEME","TIME_SYSTEM":"UTC","MEAN_ELEMENT_THEORY":"SGP4","EPOCH":"2026-05-24T17:19:41.416032","MEAN_MOTION":"1.70473926","ECCENTRICITY":"0.00047380","INCLINATION":"55.4828","RA_OF_ASC_NODE":"101.7300","ARG_OF_PERICENTER":"349.6187","MEAN_ANOMALY":"10.3311","EPHEMERIS_TYPE":"0","CLASSIFICATION_TYPE":"U","NORAD_CAT_ID":"41860","ELEMENT_SET_NO":"999","REV_AT_EPOCH":"5925","BSTAR":"0.00000000000000","MEAN_MOTION_DOT":"0.00000014","MEAN_MOTION_DDOT":"0.0000000000000","SEMIMAJOR_AXIS":"29600.329","PERIOD":"844.704","APOAPSIS":"23236.218","PERIAPSIS":"23208.169","OBJECT_TYPE":"PAYLOAD","RCS_SIZE":"LARGE","COUNTRY_CODE":"ESA","LAUNCH_DATE":"2016-11-17","SITE":"FRGUI","DECAY_DATE":null,"FILE":"5212933","GP_ID":"324801959","TLE_LINE0":"0 GALILEO 16 (26C)","TLE_LINE1":"1 41860U 16069B   26144.72200713  .00000014  00000-0  00000+0 0  9994","TLE_LINE2":"2 41860  55.4828 101.7300 0004738 349.6187  10.3311  1.70473926 59254"}]